{"type": "FeatureCollection", "features": [ {"type": "Feature", "properties": {"norad_id": 33748, "name": "FENGYUN 1C DEB", "group": "fengyun-1c-debris", "lat": 24.347419602400386, "lon": 31.464836734212952, "alt_km": 801.2500340562956, "timestamp": "2025-12-10T04:57:29.905541+00:00", "meta": {"OBJECT_NAME": "FENGYUN 1C DEB", "OBJECT_ID": "1999-025DJM", "EPOCH": "2025-12-09T02:01:00.473664", "MEAN_MOTION": 14.32243149, "ECCENTRICITY": 0.00344124, "INCLINATION": 98.5865, "RA_OF_ASC_NODE": 34.2741, "ARG_OF_PERICENTER": 251.9887, "MEAN_ANOMALY": 107.7545, "EPHEMERIS_TYPE": 0, "CLASSIFICATION_TYPE": "U", "NORAD_CAT_ID": 33748, "ELEMENT_SET_NO": 999, "REV_AT_EPOCH": 91341, "BSTAR": 0.0016017581, "MEAN_MOTION_DOT": 4.305e-05, "MEAN_MOTION_DDOT": 0}, "tle": {"line1": "1 33748U 99025DJM 25343.08403326  .00004305  00000+0  16018-2 0  9992", "line2": "2 33748  98.5865  34.2741 0034412 251.9887 107.7545 14.32243149913413"}}, "geometry": {"type": "Point", "coordinates": [31.464836734212952, 24.347419602400386]}}, {"type": "Feature", "properties": {"norad_id": 35088, "name": "FENGYUN 1C DEB", "group": "fengyun-1c-debris", "lat": -69.07627743313653, "lon": 173.21159257657033, "alt_km": 819.4355468131407, "timestamp": "2025-12-10T04:57:29.905552+00:00", "meta": {"OBJECT_NAME": "FENGYUN 1C DEB", "OBJECT_ID": "1999-025DJQ", "EPOCH": "2025-12-05T18:07:13.251936", "MEAN_MOTION": 14.11541767, "ECCENTRICITY": 0.0269112, "INCLINATION": 94.6213, "RA_OF_ASC_NODE": 158.6962, "ARG_OF_PERICENTER": 224.9702, "MEAN_ANOMALY": 132.9405, "EPHEMERIS_TYPE": 0, "CLASSIFICATION_TYPE": "U", "NORAD_CAT_ID": 35088, "ELEMENT_SET_NO": 999, "REV_AT_EPOCH": 58701, "BSTAR": 0.013442762, "MEAN_MOTION_DOT": 0.00034432, "MEAN_MOTION_DDOT": 0}, "tle": {"line1": "1 35088U 99025DJQ 25339.75501449  .00034432  00000+0  13443-1 0  9997", "line2": "2 35088  94.6213 158.6962 0269112 224.9702 132.9405 14.11541767587017"}}, "geometry": {"type": "Point", "coordinates": [173.21159257657033, -69.07627743313653]}}, {"type": "Feature", "properties": {"norad_id": 35089, "name": "FENGYUN 1C DEB", "group": "fengyun-1c-debris", "lat": 53.839667729176824, "lon": -173.97795219556235, "alt_km": 809.6235898548157, "timestamp": "2025-12-10T04:57:29.905562+00:00", "meta": {"OBJECT_NAME": "FENGYUN 1C DEB", "OBJECT_ID": "1999-025DJR", "EPOCH": "2025-12-09T11:27:18.732960", "MEAN_MOTION": 14.19406772, "ECCENTRICITY": 0.00291418, "INCLINATION": 98.5584, "RA_OF_ASC_NODE": 353.4263, "ARG_OF_PERICENTER": 74.1039, "MEAN_ANOMALY": 286.3346, "EPHEMERIS_TYPE": 0, "CLASSIFICATION_TYPE": "U", "NORAD_CAT_ID": 35089, "ELEMENT_SET_NO": 999, "REV_AT_EPOCH": 60829, "BSTAR": 0.00082160985, "MEAN_MOTION_DOT": 1.693e-05, "MEAN_MOTION_DDOT": 0}, "tle": {"line1": "1 35089U 99025DJR 25343.47730015  .00001693  00000+0  82161-3 0  9993", "line2": "2 35089  98.5584 353.4263 0029141  74.1039 286.3346 14.19406772608291"}}, "geometry": {"type": "Point", "coordinates": [-173.97795219556235, 53.839667729176824]}}, {"type": "Feature", "properties": {"norad_id": 35090, "name": "FENGYUN 1C DEB", "group": "fengyun-1c-debris", "lat": 74.32631466045926, "lon": -147.90926710574752, "alt_km": 819.0161382790538, "timestamp": "2025-12-10T04:57:29.905572+00:00", "meta": {"OBJECT_NAME": "FENGYUN 1C DEB", "OBJECT_ID": "1999-025DJS", "EPOCH": "2025-11-28T11:16:09.482016", "MEAN_MOTION": 14.17474979, "ECCENTRICITY": 0.00568935, "INCLINATION": 99.1993, "RA_OF_ASC_NODE": 344.6679, "ARG_OF_PERICENTER": 56.1043, "MEAN_ANOMALY": 304.5524, "EPHEMERIS_TYPE": 0, "CLASSIFICATION_TYPE": "U", "NORAD_CAT_ID": 35090, "ELEMENT_SET_NO": 999, "REV_AT_EPOCH": 66048, "BSTAR": 0.0014922384, "MEAN_MOTION_DOT": 3.028e-05, "MEAN_MOTION_DDOT": 0}, "tle": {"line1": "1 35090U 99025DJS 25332.46955419  .00003028  00000+0  14922-2 0  9992", "line2": "2 35090  99.1993 344.6679 0056893  56.1043 304.5524 14.17474979660488"}}, "geometry": {"type": "Point", "coordinates": [-147.90926710574752, 74.32631466045926]}}, {"type": "Feature", "properties": {"norad_id": 35091, "name": "FENGYUN 1C DEB", "group": "fengyun-1c-debris", "lat": 36.07795810343772, "lon": 82.07293041581813, "alt_km": 689.9173194643026, "timestamp": "2025-12-10T04:57:29.905582+00:00", "meta": {"OBJECT_NAME": "FENGYUN 1C DEB", "OBJECT_ID": "1999-025DJT", "EPOCH": "2025-12-08T18:17:05.167104", "MEAN_MOTION": 14.61392696, "ECCENTRICITY": 0.00484977, "INCLINATION": 98.5949, "RA_OF_ASC_NODE": 86.8994, "ARG_OF_PERICENTER": 304.2496, "MEAN_ANOMALY": 55.4115, "EPHEMERIS_TYPE": 0, "CLASSIFICATION_TYPE": "U", "NORAD_CAT_ID": 35091, "ELEMENT_SET_NO": 999, "REV_AT_EPOCH": 89869, "BSTAR": 0.0039302605, "MEAN_MOTION_DOT": 0.0001977, "MEAN_MOTION_DDOT": 0}, "tle": {"line1": "1 35091U 99025DJT 25342.76186536  .00019770  00000+0  39303-2 0  9994", "line2": "2 35091  98.5949  86.8994 0048497 304.2496  55.4115 14.61392696898696"}}, "geometry": {"type": "Point", "coordinates": [82.07293041581813, 36.07795810343772]}}, {"type": "Feature", "properties": {"norad_id": 35102, "name": "FENGYUN 1C DEB", "group": "fengyun-1c-debris", "lat": 52.041173736797894, "lon": -174.42439109265223, "alt_km": 752.0485432621244, "timestamp": "2025-12-10T04:57:29.905592+00:00", "meta": {"OBJECT_NAME": "FENGYUN 1C DEB", "OBJECT_ID": "1999-025DKE", "EPOCH": "2025-12-08T18:45:28.417824", "MEAN_MOTION": 14.288571, "ECCENTRICITY": 0.0060882, "INCLINATION": 98.4802, "RA_OF_ASC_NODE": 353.1647, "ARG_OF_PERICENTER": 103.2317, "MEAN_ANOMALY": 257.5666, "EPHEMERIS_TYPE": 0, "CLASSIFICATION_TYPE": "U", "NORAD_CAT_ID": 35102, "ELEMENT_SET_NO": 999, "REV_AT_EPOCH": 64856, "BSTAR": 0.00079932, "MEAN_MOTION_DOT": 2.015e-05, "MEAN_MOTION_DDOT": 0}, "tle": {"line1": "1 35102U 99025DKE 25342.78157891  .00002015  00000+0  79932-3 0  9998", "line2": "2 35102  98.4802 353.1647 0060882 103.2317 257.5666 14.28857100648566"}}, "geometry": {"type": "Point", "coordinates": [-174.42439109265223, 52.041173736797894]}}, {"type": "Feature", "properties": {"norad_id": 35104, "name": "FENGYUN 1C DEB", "group": "fengyun-1c-debris", "lat": 7.928463827995683, "lon": -10.225676217519618, "alt_km": 843.1539114127518, "timestamp": "2025-12-10T04:57:29.905602+00:00", "meta": {"OBJECT_NAME": "FENGYUN 1C DEB", "OBJECT_ID": "1999-025DKG", "EPOCH": "2025-12-06T18:54:45.260640", "MEAN_MOTION": 14.20313369, "ECCENTRICITY": 0.00310538, "INCLINATION": 98.5964, "RA_OF_ASC_NODE": 347.6591, "ARG_OF_PERICENTER": 157.8508, "MEAN_ANOMALY": 20.7382, "EPHEMERIS_TYPE": 0, "CLASSIFICATION_TYPE": "U", "NORAD_CAT_ID": 35104, "ELEMENT_SET_NO": 999, "REV_AT_EPOCH": 89682, "BSTAR": 0.00068235303, "MEAN_MOTION_DOT": 1.425e-05, "MEAN_MOTION_DDOT": 0}, "tle": {"line1": "1 35104U 99025DKG 25340.78802385  .00001425  00000+0  68235-3 0  9991", "line2": "2 35104  98.5964 347.6591 0031053 157.8508  20.7382 14.20313369896824"}}, "geometry": {"type": "Point", "coordinates": [-10.225676217519618, 7.928463827995683]}}, {"type": "Feature", "properties": {"norad_id": 35105, "name": "FENGYUN 1C DEB", "group": "fengyun-1c-debris", "lat": 0.686611164836736, "lon": 145.22983267208247, "alt_km": 779.7739017911645, "timestamp": "2025-12-10T04:57:29.905612+00:00", "meta": {"OBJECT_NAME": "FENGYUN 1C DEB", "OBJECT_ID": "1999-025DKH", "EPOCH": "2025-12-09T16:30:45.100800", "MEAN_MOTION": 14.45366137, "ECCENTRICITY": 0.0112846, "INCLINATION": 98.9435, "RA_OF_ASC_NODE": 324.5756, "ARG_OF_PERICENTER": 63.4529, "MEAN_ANOMALY": 297.8177, "EPHEMERIS_TYPE": 0, "CLASSIFICATION_TYPE": "U", "NORAD_CAT_ID": 35105, "ELEMENT_SET_NO": 999, "REV_AT_EPOCH": 94449, "BSTAR": 0.00060981, "MEAN_MOTION_DOT": 2.267e-05, "MEAN_MOTION_DDOT": 0}, "tle": {"line1": "1 35105U 99025DKH 25343.68802200  .00002267  00000+0  60981-3 0  9995", "line2": "2 35105  98.9435 324.5756 0112846  63.4529 297.8177 14.45366137944498"}}, "geometry": {"type": "Point", "coordinates": [145.22983267208247, 0.686611164836736]}}, {"type": "Feature", "properties": {"norad_id": 35108, "name": "FENGYUN 1C DEB", "group": "fengyun-1c-debris", "lat": 39.63000034233908, "lon": 167.27333972723847, "alt_km": 833.986440536487, "timestamp": "2025-12-10T04:57:29.905623+00:00", "meta": {"OBJECT_NAME": "FENGYUN 1C DEB", "OBJECT_ID": "1999-025DKL", "EPOCH": "2025-12-08T06:13:34.793472", "MEAN_MOTION": 14.06905654, "ECCENTRICITY": 0.01350645, "INCLINATION": 98.7996, "RA_OF_ASC_NODE": 338.0081, "ARG_OF_PERICENTER": 74.0763, "MEAN_ANOMALY": 287.5242, "EPHEMERIS_TYPE": 0, "CLASSIFICATION_TYPE": "U", "NORAD_CAT_ID": 35108, "ELEMENT_SET_NO": 999, "REV_AT_EPOCH": 89175, "BSTAR": 0.00049382125, "MEAN_MOTION_DOT": 8.52e-06, "MEAN_MOTION_DDOT": 0}, "tle": {"line1": "1 35108U 99025DKL 25342.25943048  .00000852  00000+0  49382-3 0  9996", "line2": "2 35108  98.7996 338.0081 0135064  74.0763 287.5242 14.06905654891756"}}, "geometry": {"type": "Point", "coordinates": [167.27333972723847, 39.63000034233908]}}, {"type": "Feature", "properties": {"norad_id": 35109, "name": "FENGYUN 1C DEB", "group": "fengyun-1c-debris", "lat": 10.274923582204455, "lon": 155.126847039635, "alt_km": 890.7354044964168, "timestamp": "2025-12-10T04:57:29.905633+00:00", "meta": {"OBJECT_NAME": "FENGYUN 1C DEB", "OBJECT_ID": "1999-025DKM", "EPOCH": "2025-12-08T04:51:14.194368", "MEAN_MOTION": 14.20865245, "ECCENTRICITY": 0.01536181, "INCLINATION": 98.6162, "RA_OF_ASC_NODE": 331.5968, "ARG_OF_PERICENTER": 47.4251, "MEAN_ANOMALY": 313.9771, "EPHEMERIS_TYPE": 0, "CLASSIFICATION_TYPE": "U", "NORAD_CAT_ID": 35109, "ELEMENT_SET_NO": 999, "REV_AT_EPOCH": 64095, "BSTAR": 0.00053660698, "MEAN_MOTION_DOT": 1.265e-05, "MEAN_MOTION_DDOT": 0}, "tle": {"line1": "1 35109U 99025DKM 25342.20224762  .00001265  00000+0  53661-3 0  9991", "line2": "2 35109  98.6162 331.5968 0153618  47.4251 313.9771 14.20865245640956"}}, "geometry": {"type": "Point", "coordinates": [155.126847039635, 10.274923582204455]}}]}